{
  "type": "FeatureCollection",
  "features": [
    {
      "type": "Feature",
      "properties": {
        "norad_id": 66854,
        "name": "STARLINK-36087",
        "group": "last-30-days",
        "lat": -8.108037217145927,
        "lon": 94.71043098026163,
        "alt_km": 320.8984257164093,
        "timestamp": "2025-12-15T19:00:44.078710+00:00",
        "meta_object_name": "STARLINK-36087",
        "meta_object_id": "2025-281G",
        "meta_epoch": "2025-12-14T20:00:06.000192",
        "meta_mean_motion": 15.85747401,
        "meta_eccentricity": 0.00017518,
        "meta_inclination": 43.0006,
        "meta_ra_of_asc_node": 109.4045,
        "meta_arg_of_pericenter": 276.0965,
        "meta_mean_anomaly": 356.099,
        "meta_ephemeris_type": 0,
        "meta_classification_type": "U",
        "meta_norad_cat_id": 66854,
        "meta_element_set_no": 999,
        "meta_rev_at_epoch": 173,
        "meta_bstar": -0.0052010833,
        "meta_mean_motion_dot": -0.01169831,
        "meta_mean_motion_ddot": 0,
        "tle_line1": "1 66854U 25281G   25348.83340278 -.01169831  00000+0 -52011-2 0  9995",
        "tle_line2": "2 66854  43.0006 109.4045 0001751 276.0965 356.0990 15.85747401  1731"
      },
      "geometry": {
        "type": "Point",
        "coordinates": [
          94.71043098026163,
          -8.108037217145927
        ]
      }
    },
    {
      "type": "Feature",
      "properties": {
        "norad_id": 66855,
        "name": "STARLINK-36090",
        "group": "last-30-days",
        "lat": -6.385956982526367,
        "lon": 96.60018815394083,
        "alt_km": 320.8556814876174,
        "timestamp": "2025-12-15T19:00:44.078720+00:00",
        "meta_object_name": "STARLINK-36090",
        "meta_object_id": "2025-281H",
        "meta_epoch": "2025-12-14T20:00:06.000192",
        "meta_mean_motion": 15.85751868,
        "meta_eccentricity": 0.00016536,
        "meta_inclination": 43.0007,
        "meta_ra_of_asc_node": 109.3982,
        "meta_arg_of_pericenter": 276.5392,
        "meta_mean_anomaly": 358.2546,
        "meta_ephemeris_type": 0,
        "meta_classification_type": "U",
        "meta_norad_cat_id": 66855,
        "meta_element_set_no": 999,
        "meta_rev_at_epoch": 161,
        "meta_bstar": -0.0052811065,
        "meta_mean_motion_dot": -0.01186074,
        "meta_mean_motion_ddot": 0,
        "tle_line1": "1 66855U 25281H   25348.83340278 -.01186074  00000+0 -52811-2 0  9992",
        "tle_line2": "2 66855  43.0007 109.3982 0001653 276.5392 358.2546 15.85751868  1612"
      },
      "geometry": {
        "type": "Point",
        "coordinates": [
          96.60018815394083,
          -6.385956982526367
        ]
      }
    },
    {
      "type": "Feature",
      "properties": {
        "norad_id": 66856,
        "name": "STARLINK-36072",
        "group": "last-30-days",
        "lat": -4.427123774222283,
        "lon": 98.72487044768631,
        "alt_km": 320.7329060998909,
        "timestamp": "2025-12-15T19:00:44.078733+00:00",
        "meta_object_name": "STARLINK-36072",
        "meta_object_id": "2025-281J",
        "meta_epoch": "2025-12-14T20:00:06.000192",
        "meta_mean_motion": 15.85733185,
        "meta_eccentricity": 0.00015688,
        "meta_inclination": 43.0005,
        "meta_ra_of_asc_node": 109.3905,
        "meta_arg_of_pericenter": 277.297,
        "meta_mean_anomaly": 0.4456,
        "meta_ephemeris_type": 0,
        "meta_classification_type": "U",
        "meta_norad_cat_id": 66856,
        "meta_element_set_no": 999,
        "meta_rev_at_epoch": 173,
        "meta_bstar": -0.0052792675,
        "meta_mean_motion_dot": -0.01184684,
        "meta_mean_motion_ddot": 0,
        "tle_line1": "1 66856U 25281J   25348.83340278 -.01184684  00000+0 -52793-2 0  9997",
        "tle_line2": "2 66856  43.0005 109.3905 0001568 277.2970   0.4456 15.85733185  1732"
      },
      "geometry": {
        "type": "Point",
        "coordinates": [
          98.72487044768631,
          -4.427123774222283
        ]
      }
    },
    {
      "type": "Feature",
      "properties": {
        "norad_id": 66857,
        "name": "STARLINK-36083",
        "group": "last-30-days",
        "lat": -2.738282879489468,
        "lon": 100.54251064149217,
        "alt_km": 320.5194452477681,
        "timestamp": "2025-12-15T19:00:44.078744+00:00",
        "meta_object_name": "STARLINK-36083",
        "meta_object_id": "2025-281K",
        "meta_epoch": "2025-12-14T20:00:06.000192",
        "meta_mean_motion": 15.85734835,
        "meta_eccentricity": 0.00016107,
        "meta_inclination": 43.0004,
        "meta_ra_of_asc_node": 109.3843,
        "meta_arg_of_pericenter": 280.3253,
        "meta_mean_anomaly": 359.9213,
        "meta_ephemeris_type": 0,
        "meta_classification_type": "U",
        "meta_norad_cat_id": 66857,
        "meta_element_set_no": 999,
        "meta_rev_at_epoch": 173,
        "meta_bstar": -0.0053138188,
        "meta_mean_motion_dot": -0.01191711,
        "meta_mean_motion_ddot": 0,
        "tle_line1": "1 66857U 25281K   25348.83340278 -.01191711  00000+0 -53138-2 0  9991",
        "tle_line2": "2 66857  43.0004 109.3843 0001610 280.3253 359.9213 15.85734835  1736"
      },
      "geometry": {
        "type": "Point",
        "coordinates": [
          100.54251064149217,
          -2.738282879489468
        ]
      }
    },
    {
      "type": "Feature",
      "properties": {
        "norad_id": 66858,
        "name": "STARLINK-35118",
        "group": "last-30-days",
        "lat": -0.9714825524047723,
        "lon": 102.4349152416213,
        "alt_km": 320.36589883577744,
        "timestamp": "2025-12-15T19:00:44.078754+00:00",
        "meta_object_name": "STARLINK-35118",
        "meta_object_id": "2025-281L",
        "meta_epoch": "2025-12-14T20:00:06.000192",
        "meta_mean_motion": 15.85734489,
        "meta_eccentricity": 0.00017205,
        "meta_inclination": 43.0007,
        "meta_ra_of_asc_node": 109.3772,
        "meta_arg_of_pericenter": 280.3337,
        "meta_mean_anomaly": 2.5267,
        "meta_ephemeris_type": 0,
        "meta_classification_type": "U",
        "meta_norad_cat_id": 66858,
        "meta_element_set_no": 999,
        "meta_rev_at_epoch": 152,
        "meta_bstar": -0.0053411075,
        "meta_mean_motion_dot": -0.01197213,
        "meta_mean_motion_ddot": 0,
        "tle_line1": "1 66858U 25281L   25348.83340278 -.01197213  00000+0 -53411-2 0  9999",
        "tle_line2": "2 66858  43.0007 109.3772 0001720 280.3337   2.5267 15.85734489  1528"
      },
      "geometry": {
        "type": "Point",
        "coordinates": [
          102.4349152416213,
          -0.9714825524047723
        ]
      }
    },
    {
      "type": "Feature",
      "properties": {
        "norad_id": 66859,
        "name": "STARLINK-35646",
        "group": "last-30-days",
        "lat": 0.9424796881982147,
        "lon": 104.48243015372815,
        "alt_km": 320.33492289940295,
        "timestamp": "2025-12-15T19:00:44.078764+00:00",
        "meta_object_name": "STARLINK-35646",
        "meta_object_id": "2025-281M",
        "meta_epoch": "2025-12-14T20:00:06.000192",
        "meta_mean_motion": 15.85729499,
        "meta_eccentricity": 0.00016661,
        "meta_inclination": 43.0006,
        "meta_ra_of_asc_node": 109.3703,
        "meta_arg_of_pericenter": 278.8737,
        "meta_mean_anomaly": 6.8634,
        "meta_ephemeris_type": 0,
        "meta_classification_type": "U",
        "meta_norad_cat_id": 66859,
        "meta_element_set_no": 999,
        "meta_rev_at_epoch": 173,
        "meta_bstar": -0.0054103234,
        "meta_mean_motion_dot": -0.01210726,
        "meta_mean_motion_ddot": 0,
        "tle_line1": "1 66859U 25281M   25348.83340278 -.01210726  00000+0 -54103-2 0  9994",
        "tle_line2": "2 66859  43.0006 109.3703 0001666 278.8737   6.8634 15.85729499  1730"
      },
      "geometry": {
        "type": "Point",
        "coordinates": [
          104.48243015372815,
          0.9424796881982147
        ]
      }
    },
    {
      "type": "Feature",
      "properties": {
        "norad_id": 66860,
        "name": "STARLINK-35987",
        "group": "last-30-days",
        "lat": 10.555781788141093,
        "lon": 114.97056718860995,
        "alt_km": 320.43662874690835,
        "timestamp": "2025-12-15T19:00:44.078775+00:00",
        "meta_object_name": "STARLINK-35987",
        "meta_object_id": "2025-281N",
        "meta_epoch": "2025-12-14T20:00:06.000192",
        "meta_mean_motion": 15.85714313,
        "meta_eccentricity": 0.0001679,
        "meta_inclination": 43.0006,
        "meta_ra_of_asc_node": 109.3329,
        "meta_arg_of_pericenter": 272.5138,
        "meta_mean_anomaly": 28.0131,
        "meta_ephemeris_type": 0,
        "meta_classification_type": "U",
        "meta_norad_cat_id": 66860,
        "meta_element_set_no": 999,
        "meta_rev_at_epoch": 173,
        "meta_bstar": -0.0061178056,
        "meta_mean_motion_dot": -0.01348596,
        "meta_mean_motion_ddot": 0,
        "tle_line1": "1 66860U 25281N   25348.83340278 -.01348596  00000+0 -61178-2 0  9993",
        "tle_line2": "2 66860  43.0006 109.3329 0001679 272.5138  28.0131 15.85714313  1733"
      },
      "geometry": {
        "type": "Point",
        "coordinates": [
          114.97056718860995,
          10.555781788141093
        ]
      }
    }
  ]
}